{"type": "FeatureCollection", "features": [ {"type": "Feature", "properties": {"norad_id": 66846, "name": "STARLINK-36055", "group": "last-30-days", "lat": -69.92574024518417, "lon": 93.15671481081597, "alt_km": 375.407401469899, "timestamp": "2025-12-16T15:45:49.733541+00:00", "meta": {"OBJECT_NAME": "STARLINK-36055", "OBJECT_ID": "2025-280AB", "EPOCH": "2025-12-15T22:00:01.999584", "MEAN_MOTION": 15.6889333, "ECCENTRICITY": 0.00035782, "INCLINATION": 69.9976, "RA_OF_ASC_NODE": 189.7887, "ARG_OF_PERICENTER": 276.1649, "MEAN_ANOMALY": 137.3862, "EPHEMERIS_TYPE": 0, "CLASSIFICATION_TYPE": "U", "NORAD_CAT_ID": 66846, "ELEMENT_SET_NO": 999, "REV_AT_EPOCH": 340, "BSTAR": -0.019040019, "MEAN_MOTION_DOT": -0.01944007, "MEAN_MOTION_DDOT": 0}, "tle": {"line1": "1 66846U 25280AB  25349.91668981 -.01944007  00000+0 -19040-1 0  9999", "line2": "2 66846  69.9976 189.7887 0003578 276.1649 137.3862 15.68893330  3407"}}, "geometry": {"type": "Point", "coordinates": [93.15671481081597, -69.92574024518417]}}, {"type": "Feature", "properties": {"norad_id": 66847, "name": "STARLINK-36061", "group": "last-30-days", "lat": -69.98091183407352, "lon": 98.81910412712743, "alt_km": 375.2319327592013, "timestamp": "2025-12-16T15:45:49.733551+00:00", "meta": {"OBJECT_NAME": "STARLINK-36061", "OBJECT_ID": "2025-280AC", "EPOCH": "2025-12-15T22:00:01.999584", "MEAN_MOTION": 15.68880824, "ECCENTRICITY": 0.00036799, "INCLINATION": 69.9977, "RA_OF_ASC_NODE": 189.7864, "ARG_OF_PERICENTER": 275.3394, "MEAN_ANOMALY": 140.1312, "EPHEMERIS_TYPE": 0, "CLASSIFICATION_TYPE": "U", "NORAD_CAT_ID": 66847, "ELEMENT_SET_NO": 999, "REV_AT_EPOCH": 336, "BSTAR": -0.018770219, "MEAN_MOTION_DOT": -0.0191878, "MEAN_MOTION_DDOT": 0}, "tle": {"line1": "1 66847U 25280AC  25349.91668981 -.01918780  00000+0 -18770-1 0  9998", "line2": "2 66847  69.9977 189.7864 0003679 275.3394 140.1312 15.68880824  3365"}}, "geometry": {"type": "Point", "coordinates": [98.81910412712743, -69.98091183407352]}}, {"type": "Feature", "properties": {"norad_id": 66848, "name": "STARLINK-36091", "group": "last-30-days", "lat": -27.692422977657174, "lon": -47.47606285505735, "alt_km": 328.9575677623461, "timestamp": "2025-12-16T15:45:49.733563+00:00", "meta": {"OBJECT_NAME": "STARLINK-36091", "OBJECT_ID": "2025-281A", "EPOCH": "2025-12-15T22:00:01.999584", "MEAN_MOTION": 15.83073046, "ECCENTRICITY": 0.00017719, "INCLINATION": 43.0006, "RA_OF_ASC_NODE": 102.7832, "ARG_OF_PERICENTER": 278.5908, "MEAN_ANOMALY": 43.5897, "EPHEMERIS_TYPE": 0, "CLASSIFICATION_TYPE": "U", "NORAD_CAT_ID": 66848, "ELEMENT_SET_NO": 999, "REV_AT_EPOCH": 191, "BSTAR": -0.0059543272, "MEAN_MOTION_DOT": -0.01175718, "MEAN_MOTION_DDOT": 0}, "tle": {"line1": "1 66848U 25281A   25349.91668981 -.01175718  00000+0 -59543-2 0  9990", "line2": "2 66848  43.0006 102.7832 0001771 278.5908  43.5897 15.83073046  1919"}}, "geometry": {"type": "Point", "coordinates": [-47.47606285505735, -27.692422977657174]}}, {"type": "Feature", "properties": {"norad_id": 66849, "name": "STARLINK-36102", "group": "last-30-days", "lat": -28.97902718830954, "lon": -45.29656291215568, "alt_km": 329.07916749278866, "timestamp": "2025-12-16T15:45:49.733573+00:00", "meta": {"OBJECT_NAME": "STARLINK-36102", "OBJECT_ID": "2025-281B", "EPOCH": "2025-12-15T22:00:01.999584", "MEAN_MOTION": 15.83063315, "ECCENTRICITY": 0.00016434, "INCLINATION": 43.0007, "RA_OF_ASC_NODE": 102.7768, "ARG_OF_PERICENTER": 278.2463, "MEAN_ANOMALY": 46.2863, "EPHEMERIS_TYPE": 0, "CLASSIFICATION_TYPE": "U", "NORAD_CAT_ID": 66849, "ELEMENT_SET_NO": 999, "REV_AT_EPOCH": 191, "BSTAR": -0.0059840748, "MEAN_MOTION_DOT": -0.01180394, "MEAN_MOTION_DDOT": 0}, "tle": {"line1": "1 66849U 25281B   25349.91668981 -.01180394  00000+0 -59841-2 0  9998", "line2": "2 66849  43.0007 102.7768 0001643 278.2463  46.2863 15.83063315  1911"}}, "geometry": {"type": "Point", "coordinates": [-45.29656291215568, -28.97902718830954]}}, {"type": "Feature", "properties": {"norad_id": 66850, "name": "STARLINK-36105", "group": "last-30-days", "lat": -30.50426049342226, "lon": -42.55342753323695, "alt_km": 329.07585254924106, "timestamp": "2025-12-16T15:45:49.733583+00:00", "meta": {"OBJECT_NAME": "STARLINK-36105", "OBJECT_ID": "2025-281C", "EPOCH": "2025-12-15T22:00:01.999584", "MEAN_MOTION": 15.83024228, "ECCENTRICITY": 0.00018121, "INCLINATION": 43.0004, "RA_OF_ASC_NODE": 102.7694, "ARG_OF_PERICENTER": 273.1208, "MEAN_ANOMALY": 54.3743, "EPHEMERIS_TYPE": 0, "CLASSIFICATION_TYPE": "U", "NORAD_CAT_ID": 66850, "ELEMENT_SET_NO": 999, "REV_AT_EPOCH": 191, "BSTAR": -0.0060488918, "MEAN_MOTION_DOT": -0.01189897, "MEAN_MOTION_DDOT": 0}, "tle": {"line1": "1 66850U 25281C   25349.91668981 -.01189897  00000+0 -60489-2 0  9997", "line2": "2 66850  43.0004 102.7694 0001812 273.1208  54.3743 15.83024228  1914"}}, "geometry": {"type": "Point", "coordinates": [-42.55342753323695, -30.50426049342226]}}, {"type": "Feature", "properties": {"norad_id": 66851, "name": "STARLINK-36094", "group": "last-30-days", "lat": -31.740631383202974, "lon": -40.181598590086885, "alt_km": 329.4096792146156, "timestamp": "2025-12-16T15:45:49.733593+00:00", "meta": {"OBJECT_NAME": "STARLINK-36094", "OBJECT_ID": "2025-281D", "EPOCH": "2025-12-15T22:00:01.999584", "MEAN_MOTION": 15.83012674, "ECCENTRICITY": 0.00017388, "INCLINATION": 43.0004, "RA_OF_ASC_NODE": 102.7632, "ARG_OF_PERICENTER": 281.4868, "MEAN_ANOMALY": 48.4425, "EPHEMERIS_TYPE": 0, "CLASSIFICATION_TYPE": "U", "NORAD_CAT_ID": 66851, "ELEMENT_SET_NO": 999, "REV_AT_EPOCH": 191, "BSTAR": -0.0060953716, "MEAN_MOTION_DOT": -0.01197405, "MEAN_MOTION_DDOT": 0}, "tle": {"line1": "1 66851U 25281D   25349.91668981 -.01197405  00000+0 -60954-2 0  9999", "line2": "2 66851  43.0004 102.7632 0001738 281.4868  48.4425 15.83012674  1911"}}, "geometry": {"type": "Point", "coordinates": [-40.181598590086885, -31.740631383202974]}}, {"type": "Feature", "properties": {"norad_id": 66852, "name": "STARLINK-35992", "group": "last-30-days", "lat": -32.90156265664081, "lon": -37.81033503982405, "alt_km": 329.5662609017036, "timestamp": "2025-12-16T15:45:49.733603+00:00", "meta": {"OBJECT_NAME": "STARLINK-35992", "OBJECT_ID": "2025-281E", "EPOCH": "2025-12-15T22:00:01.999584", "MEAN_MOTION": 15.83008183, "ECCENTRICITY": 0.00015448, "INCLINATION": 43.0006, "RA_OF_ASC_NODE": 102.7574, "ARG_OF_PERICENTER": 279.8345, "MEAN_ANOMALY": 52.4681, "EPHEMERIS_TYPE": 0, "CLASSIFICATION_TYPE": "U", "NORAD_CAT_ID": 66852, "ELEMENT_SET_NO": 999, "REV_AT_EPOCH": 191, "BSTAR": -0.0061975303, "MEAN_MOTION_DOT": -0.01214887, "MEAN_MOTION_DDOT": 0}, "tle": {"line1": "1 66852U 25281E   25349.91668981 -.01214887  00000+0 -61975-2 0  9998", "line2": "2 66852  43.0006 102.7574 0001544 279.8345  52.4681 15.83008183  1914"}}, "geometry": {"type": "Point", "coordinates": [-37.81033503982405, -32.90156265664081]}}, {"type": "Feature", "properties": {"norad_id": 66853, "name": "STARLINK-35986", "group": "last-30-days", "lat": -34.28176400284831, "lon": -34.77195718834603, "alt_km": 329.88323458627383, "timestamp": "2025-12-16T15:45:49.733615+00:00", "meta": {"OBJECT_NAME": "STARLINK-35986", "OBJECT_ID": "2025-281F", "EPOCH": "2025-12-15T22:00:01.999584", "MEAN_MOTION": 15.82977335, "ECCENTRICITY": 0.0001607, "INCLINATION": 43.0006, "RA_OF_ASC_NODE": 102.7495, "ARG_OF_PERICENTER": 277.948, "MEAN_ANOMALY": 57.4662, "EPHEMERIS_TYPE": 0, "CLASSIFICATION_TYPE": "U", "NORAD_CAT_ID": 66853, "ELEMENT_SET_NO": 999, "REV_AT_EPOCH": 191, "BSTAR": -0.0065437679, "MEAN_MOTION_DOT": -0.01273147, "MEAN_MOTION_DDOT": 0}, "tle": {"line1": "1 66853U 25281F   25349.91668981 -.01273147  00000+0 -65438-2 0  9991", "line2": "2 66853  43.0006 102.7495 0001607 277.9480  57.4662 15.82977335  1913"}}, "geometry": {"type": "Point", "coordinates": [-34.77195718834603, -34.28176400284831]}}, {"type": "Feature", "properties": {"norad_id": 66854, "name": "STARLINK-36087", "group": "last-30-days", "lat": -35.5320590797831, "lon": -31.76634514787691, "alt_km": 330.0819258224128, "timestamp": "2025-12-16T15:45:49.733627+00:00", "meta": {"OBJECT_NAME": "STARLINK-36087", "OBJECT_ID": "2025-281G", "EPOCH": "2025-12-15T22:00:01.999584", "MEAN_MOTION": 15.82934052, "ECCENTRICITY": 0.00017, "INCLINATION": 43.0005, "RA_OF_ASC_NODE": 102.7415, "ARG_OF_PERICENTER": 272.2486, "MEAN_ANOMALY": 66.1658, "EPHEMERIS_TYPE": 0, "CLASSIFICATION_TYPE": "U", "NORAD_CAT_ID": 66854, "ELEMENT_SET_NO": 999, "REV_AT_EPOCH": 191, "BSTAR": -0.0068368181, "MEAN_MOTION_DOT": -0.01320803, "MEAN_MOTION_DDOT": 0}, "tle": {"line1": "1 66854U 25281G   25349.91668981 -.01320803  00000+0 -68368-2 0  9999", "line2": "2 66854  43.0005 102.7415 0001700 272.2486  66.1658 15.82934052  1914"}}, "geometry": {"type": "Point", "coordinates": [-31.76634514787691, -35.5320590797831]}}, {"type": "Feature", "properties": {"norad_id": 66855, "name": "STARLINK-36090", "group": "last-30-days", "lat": -36.56601737006033, "lon": -29.05196581245215, "alt_km": 330.24361519667036, "timestamp": "2025-12-16T15:45:49.733639+00:00", "meta": {"OBJECT_NAME": "STARLINK-36090", "OBJECT_ID": "2025-281H", "EPOCH": "2025-12-15T22:00:01.999584", "MEAN_MOTION": 15.82896385, "ECCENTRICITY": 0.00017895, "INCLINATION": 43.0006, "RA_OF_ASC_NODE": 102.7353, "ARG_OF_PERICENTER": 274.0682, "MEAN_ANOMALY": 66.9089, "EPHEMERIS_TYPE": 0, "CLASSIFICATION_TYPE": "U", "NORAD_CAT_ID": 66855, "ELEMENT_SET_NO": 999, "REV_AT_EPOCH": 179, "BSTAR": -0.0069177053, "MEAN_MOTION_DOT": -0.0133244, "MEAN_MOTION_DDOT": 0}, "tle": {"line1": "1 66855U 25281H   25349.91668981 -.01332440  00000+0 -69177-2 0  9999", "line2": "2 66855  43.0006 102.7353 0001789 274.0682  66.9089 15.82896385  1790"}}, "geometry": {"type": "Point", "coordinates": [-29.05196581245215, -36.56601737006033]}}]}